[
    {
        "Altitude(m)": 610399.5513250476,
        "Argument of Periapsis(deg)": 0.0,
        "Eccentricity": 0.0,
        "Inclination(deg)": 60.0,
        "Latitude(deg)": 52.11139698054649,
        "Longitude(deg)": 167.58441956347204,
        "Mean Anomaly(deg)": 65.45449999999998,
        "RAAN(deg)": 220.00000000000003,
        "Satellite Name": "Test1 972",
        "Satellite Number": 972,
        "Semi-Major Axis(m)": 6980739.136638005,
        "Time(s)": 0
    },
    {
        "Altitude(m)": 610481.7018976236,
        "Argument of Periapsis(deg)": 0.00010418945913296404,
        "Eccentricity": 0.0,
        "Inclination(deg)": 60.0,
        "Latitude(deg)": 52.47099801017681,
        "Longitude(deg)": 168.3665583548808,
        "Mean Anomaly(deg)": 66.07460614546183,
        "RAAN(deg)": 219.99957995086027,
        "Satellite Name": "Test1 972",
        "Satellite Number": 972,
        "Semi-Major Axis(m)": 6980739.136638005,
        "Time(s)": 10
    },
    {
        "Altitude(m)": 610562.3912743584,
        "Argument of Periapsis(deg)": 0.0002083789182659281,
        "Eccentricity": 0.0,
        "Inclination(deg)": 60.0,
        "Latitude(deg)": 52.82475160422113,
        "Longitude(deg)": 169.1621101787885,
        "Mean Anomaly(deg)": 66.69471229092366,
        "RAAN(deg)": 219.9991599017205,
        "Satellite Name": "Test1 972",
        "Satellite Number": 972,
        "Semi-Major Axis(m)": 6980739.136638005,
        "Time(s)": 20
    },
    {
        "Altitude(m)": 610641.5719895463,
        "Argument of Periapsis(deg)": 0.00031256837739889213,
        "Eccentricity": 0.0,
        "Inclination(deg)": 60.0,
        "Latitude(deg)": 53.17248823504938,
        "Longitude(deg)": 169.97123954333784,
        "Mean Anomaly(deg)": 67.31481843638551,
        "RAAN(deg)": 219.99873985258077,
        "Satellite Name": "Test1 972",
        "Satellite Number": 972,
        "Semi-Major Axis(m)": 6980739.136638005,
        "Time(s)": 30
    },
    {
        "Altitude(m)": 610719.1975339584,
        "Argument of Periapsis(deg)": 0.0004167578365318562,
        "Eccentricity": 0.0,
        "Inclination(deg)": 60.0,
        "Latitude(deg)": 53.51403489914449,
        "Longitude(deg)": 170.79409934389176,
        "Mean Anomaly(deg)": 67.93492458184734,
        "RAAN(deg)": 219.99831980344106,
        "Satellite Name": "Test1 972",
        "Satellite Number": 972,
        "Semi-Major Axis(m)": 6980739.136638005,
        "Time(s)": 40
    },
    {
        "Altitude(m)": 610795.2223771354,
        "Argument of Periapsis(deg)": 0.0005209472956648203,
        "Eccentricity": 0.0,
        "Inclination(deg)": 60.0,
        "Latitude(deg)": 53.849215239073935,
        "Longitude(deg)": 171.63082844883175,
        "Mean Anomaly(deg)": 68.55503072730914,
        "RAAN(deg)": 219.9978997543013,
        "Satellite Name": "Test1 972",
        "Satellite Number": 972,
        "Semi-Major Axis(m)": 6980739.136638005,
        "Time(s)": 50
    },
    {
        "Altitude(m)": 610869.601989247,
        "Argument of Periapsis(deg)": 0.0006251367547977843,
        "Eccentricity": 0.0,
        "Inclination(deg)": 60.0,
        "Latitude(deg)": 54.177849689783464,
        "Longitude(deg)": 172.48155073258857,
        "Mean Anomaly(deg)": 69.17513687277096,
        "RAAN(deg)": 219.99747970516154,
        "Satellite Name": "Test1 972",
        "Satellite Number": 972,
        "Semi-Major Axis(m)": 6980739.136638005,
        "Time(s)": 60
    },
    {
        "Altitude(m)": 610942.2928624012,
        "Argument of Periapsis(deg)": 0.0007293262139307483,
        "Eccentricity": 0.0,
        "Inclination(deg)": 60.0,
        "Latitude(deg)": 54.49975565088006,
        "Longitude(deg)": 173.34637404733357,
        "Mean Anomaly(deg)": 69.79524301823277,
        "RAAN(deg)": 219.9970596560218,
        "Satellite Name": "Test1 972",
        "Satellite Number": 972,
        "Semi-Major Axis(m)": 6980739.136638005,
        "Time(s)": 70
    },
    {
        "Altitude(m)": 611013.2525314755,
        "Argument of Periapsis(deg)": 0.0008335156730637124,
        "Eccentricity": 0.0,
        "Inclination(deg)": 60.0,
        "Latitude(deg)": 54.8147476865319,
        "Longitude(deg)": 174.22538762607513,
        "Mean Anomaly(deg)": 70.41534916369464,
        "RAAN(deg)": 219.9966396068821,
        "Satellite Name": "Test1 972",
        "Satellite Number": 972,
        "Semi-Major Axis(m)": 6980739.136638005,
        "Time(s)": 80
    },
    {
        "Altitude(m)": 611082.4395944062,
        "Argument of Periapsis(deg)": 0.0009377051321966765,
        "Eccentricity": 0.0,
        "Inclination(deg)": 60.0,
        "Latitude(deg)": 55.12263775453743,
        "Longitude(deg)": 175.1186609499533,
        "Mean Anomaly(deg)": 71.03545530915646,
        "RAAN(deg)": 219.9962195577423,
        "Satellite Name": "Test1 972",
        "Satellite Number": 972,
        "Semi-Major Axis(m)": 6980739.136638005,
        "Time(s)": 90
    },
    {
        "Altitude(m)": 611149.8137319862,
        "Argument of Periapsis(deg)": 0.0010418945913296407,
        "Eccentricity": 0.0,
        "Inclination(deg)": 60.0,
        "Latitude(deg)": 55.42323546602818,
        "Longitude(deg)": 176.02624257544923,
        "Mean Anomaly(deg)": 71.65556145461828,
        "RAAN(deg)": 219.9957995086026,
        "Satellite Name": "Test1 972",
        "Satellite Number": 972,
        "Semi-Major Axis(m)": 6980739.136638005,
        "Time(s)": 100
    },
    {
        "Altitude(m)": 611215.3357270957,
        "Argument of Periapsis(deg)": 0.0011460840504626045,
        "Eccentricity": 0.0,
        "Inclination(deg)": 60.0,
        "Latitude(deg)": 55.71634837713531,
        "Longitude(deg)": 176.94815741885893,
        "Mean Anomaly(deg)": 72.27566760008014,
        "RAAN(deg)": 219.99537945946284,
        "Satellite Name": "Test1 972",
        "Satellite Number": 972,
        "Semi-Major Axis(m)": 6980739.136638005,
        "Time(s)": 110
    },
    {
        "Altitude(m)": 611278.9674834113,
        "Argument of Periapsis(deg)": 0.0012502735095955685,
        "Eccentricity": 0.0,
        "Inclination(deg)": 60.0,
        "Latitude(deg)": 56.001782313773155,
        "Longitude(deg)": 177.8844055357301,
        "Mean Anomaly(deg)": 72.89577374554196,
        "RAAN(deg)": 219.99495941032308,
        "Satellite Name": "Test1 972",
        "Satellite Number": 972,
        "Semi-Major Axis(m)": 6980739.136638005,
        "Time(s)": 120
    },
    {
        "Altitude(m)": 611340.6720435424,
        "Argument of Periapsis(deg)": 0.0013544629687285324,
        "Eccentricity": 0.0,
        "Inclination(deg)": 60.0,
        "Latitude(deg)": 56.27934173049062,
        "Longitude(deg)": 178.83496089610762,
        "Mean Anomaly(deg)": 73.51587989100382,
        "RAAN(deg)": 219.99453936118334,
        "Satellite Name": "Test1 972",
        "Satellite Number": 972,
        "Semi-Major Axis(m)": 6980739.136638005,
        "Time(s)": 130
    },
    {
        "Altitude(m)": 611400.4136066712,
        "Argument of Periapsis(deg)": 0.0014586524278614966,
        "Eccentricity": 0.0,
        "Inclination(deg)": 60.0,
        "Latitude(deg)": 56.548830104085745,
        "Longitude(deg)": 179.79976865823832,
        "Mean Anomaly(deg)": 74.13598603646564,
        "RAAN(deg)": 219.99411931204364,
        "Satellite Name": "Test1 972",
        "Satellite Number": 972,
        "Semi-Major Axis(m)": 6980739.136638005,
        "Time(s)": 140
    },
    {
        "Altitude(m)": 611458.1575455259,
        "Argument of Periapsis(deg)": 0.0015628418869944607,
        "Eccentricity": 0.0,
        "Inclination(deg)": 60.0,
        "Latitude(deg)": 56.81005036237464,
        "Longitude(deg)": -179.22125601619965,
        "Mean Anomaly(deg)": 74.75609218192744,
        "RAAN(deg)": 219.99369926290387,
        "Satellite Name": "Test1 972",
        "Satellite Number": 972,
        "Semi-Major Axis(m)": 6980739.136638005,
        "Time(s)": 150
    },
    {
        "Altitude(m)": 611513.8704228944,
        "Argument of Periapsis(deg)": 0.0016670313461274247,
        "Eccentricity": 0.0,
        "Inclination(deg)": 60.0,
        "Latitude(deg)": 57.062805348167494,
        "Longitude(deg)": -178.22822909916204,
        "Mean Anomaly(deg)": 75.37619832738928,
        "RAAN(deg)": 219.9932792137641,
        "Satellite Name": "Test1 972",
        "Satellite Number": 972,
        "Semi-Major Axis(m)": 6980739.136638005,
        "Time(s)": 160
    },
    {
        "Altitude(m)": 611567.5200074831,
        "Argument of Periapsis(deg)": 0.0017712208052603888,
        "Eccentricity": 0.0,
        "Inclination(deg)": 60.0,
        "Latitude(deg)": 57.306898318115536,
        "Longitude(deg)": -177.22130027777783,
        "Mean Anomaly(deg)": 75.99630447285112,
        "RAAN(deg)": 219.99285916462438,
        "Satellite Name": "Test1 972",
        "Satellite Number": 972,
        "Semi-Major Axis(m)": 6980739.136638005,
        "Time(s)": 170
    },
    {
        "Altitude(m)": 611619.0752892345,
        "Argument of Periapsis(deg)": 0.001875410264393353,
        "Eccentricity": 0.0,
        "Inclination(deg)": 60.0,
        "Latitude(deg)": 57.542133475650445,
        "Longitude(deg)": -176.20065393243533,
        "Mean Anomaly(deg)": 76.61641061831295,
        "RAAN(deg)": 219.99243911548467,
        "Satellite Name": "Test1 972",
        "Satellite Number": 972,
        "Semi-Major Axis(m)": 6980739.136638005,
        "Time(s)": 180
    },
    {
        "Altitude(m)": 611668.5064940178,
        "Argument of Periapsis(deg)": 0.0019795997235263173,
        "Eccentricity": 0.0,
        "Inclination(deg)": 60.0,
        "Latitude(deg)": 57.768316536768985,
        "Longitude(deg)": -175.1665100008434,
        "Mean Anomaly(deg)": 77.23651676377476,
        "RAAN(deg)": 219.9920190663449,
        "Satellite Name": "Test1 972",
        "Satellite Number": 972,
        "Semi-Major Axis(m)": 6980739.136638005,
        "Time(s)": 190
    }
]